*******************************************************************************
 Revised: Sep 29, 2017            Hermippe / (Jupiter)                      530
  
 Jovian irregular satellite.
*******************************************************************************
 
 
*******************************************************************************
Ephemeris / WWW_USER Sun Nov 12 11:16:57 2017 Pasadena, USA      / Horizons    
*******************************************************************************
Target body name: Hermippe (530)                  {source: jup341}
Center body name: Solar System Barycenter (0)     {source: DE431mx}
Center-site name: BODY CENTER
*******************************************************************************
Start time      : A.D. 2017-Jul-10 00:00:00.0000 TDB
Stop  time      : A.D. 2020-Aug-13 00:00:00.0000 TDB
Step-size       : 1440 minutes
*******************************************************************************
Center geodetic : 0.00000000,0.00000000,0.0000000 {E-lon(deg),Lat(deg),Alt(km)}
Center cylindric: 0.00000000,0.00000000,0.0000000 {E-lon(deg),Dxy(km),Dz(km)}
Center radii    : (undefined)                                                  
Output units    : KM-S                                                         
Output type     : GEOMETRIC cartesian states
Output format   : 3 (position, velocity, LT, range, range-rate)
Reference frame : ICRF/J2000.0                                                 
Coordinate systm: Ecliptic and Mean Equinox of Reference Epoch                 
*******************************************************************************
            JDTDB,            Calendar Date (TDB),                      X,                      Y,                      Z,                     VX,                     VY,                     VZ,                     LT,                     RG,                     RR,
**************************************************************************************************************************************************************************************************************************************************************************
$$SOE
2458147.500000000, A.D. 2018-Jan-29 00:00:00.0000, -6.271784312576700E+08, -5.108716162560518E+08,  6.098236638098389E+06,  1.058193532307195E+01, -8.235538303065493E+00, -9.577364600452043E-02,  2.698324851604096E+03,  8.089374397448773E+08, -3.003993588295425E+00,
2458148.500000000, A.D. 2018-Jan-30 00:00:00.0000, -6.262630260090636E+08, -5.115835321366252E+08,  6.090514961836338E+06,  1.060796500079472E+01, -8.244024484165752E+00, -8.296169320322511E-02,  2.697459608009378E+03,  8.086780462408478E+08, -3.000420732673970E+00,
2458149.500000000, A.D. 2018-Jan-31 00:00:00.0000, -6.253453811699077E+08, -5.122961886016088E+08,  6.083902078039050E+06,  1.063377716414758E+01, -8.252681313075614E+00, -7.010736222608083E-02,  2.696595450366538E+03,  8.084189782970012E+08, -2.996457088361617E+00,
2458150.500000000, A.D. 2018-Feb-01 00:00:00.0000, -6.244255156720504E+08, -5.130096003560724E+08,  6.078401593576819E+06,  1.065936859950494E+01, -8.261507881378606E+00, -5.721192370238315E-02,  2.695732491631981E+03,  8.081602697768159E+08, -2.992100361028319E+00,
2458151.500000000, A.D. 2018-Feb-02 00:00:00.0000, -6.235034487258885E+08, -5.137237820243949E+08,  6.074017003966480E+06,  1.068473607767684E+01, -8.270503228855816E+00, -4.427668193632384E-02,  2.694870845417442E+03,  8.079019547402328E+08, -2.987348301786980E+00,
2458152.500000000, A.D. 2018-Feb-03 00:00:00.0000, -6.225791998207269E+08, -5.144387481459541E+08,  6.070751691324115E+06,  1.070987637113873E+01, -8.279666350994564E+00, -3.130295487953472E-02,  2.694010625974616E+03,  8.076440674390488E+08, -2.982198716266411E+00,
2458153.500000000, A.D. 2018-Feb-04 00:00:00.0000, -6.216527887254026E+08, -5.151545131719878E+08,  6.068608923409551E+06,  1.073478623067499E+01, -8.288996212810689E+00, -1.829207492198615E-02,  2.693151948182807E+03,  8.073866423132123E+08, -2.976649438413663E+00,
2458154.500000000, A.D. 2018-Feb-05 00:00:00.0000, -6.207242354913782E+08, -5.158710914626548E+08,  6.067591851254255E+06,  1.075946236361614E+01, -8.298491736149717E+00, -5.245416490754717E-03,  2.692294927543120E+03,  8.071297139890836E+08, -2.970698322737373E+00,
2458155.500000000, A.D. 2018-Feb-06 00:00:00.0000, -6.197935604555414E+08, -5.165884972819750E+08,  6.067703504791409E+06,  1.078390146375470E+01, -8.308151770375176E+00,  7.835593712827826E-03,  2.691439680167111E+03,  8.068733172760319E+08, -2.964343286984508E+00,
2458156.500000000, A.D. 2018-Feb-07 00:00:00.0000, -6.188607842397889E+08, -5.173067447915729E+08,  6.068946789428473E+06,  1.080810023784975E+01, -8.317975103041414E+00,  2.094950606463675E-02,  2.690586322754416E+03,  8.066174871597273E+08, -2.957582326275881E+00,
2458157.500000000, A.D. 2018-Feb-08 00:00:00.0000, -6.179259277517362E+08, -5.180258480474109E+08,  6.071324485024452E+06,  1.083205535408672E+01, -8.327960504026384E+00,  3.409486000712381E-02,  2.689734972579494E+03,  8.063622587981691E+08, -2.950413445832786E+00,
2458158.500000000, A.D. 2018-Feb-09 00:00:00.0000, -6.169890121882361E+08, -5.187458209964460E+08,  6.074839242941171E+06,  1.085576347898284E+01, -8.338106651588868E+00,  4.727013188677320E-02,  2.688885747485157E+03,  8.061076675197426E+08, -2.942834737894427E+00,
2458159.500000000, A.D. 2018-Feb-10 00:00:00.0000, -6.160500590287906E+08, -5.194666774647092E+08,  6.079493580873519E+06,  1.087922132477224E+01, -8.348412153711450E+00,  6.047378694056649E-02,  2.688038765831574E+03,  8.058537488079338E+08, -2.934844404729446E+00,
2458160.500000000, A.D. 2018-Feb-11 00:00:00.0000, -6.151090900465074E+08, -5.201884311665896E+08,  6.085289887857169E+06,  1.090242551338680E+01, -8.358875634902299E+00,  7.370428239388804E-02,  2.687194146535664E+03,  8.056005383131390E+08, -2.926440599226610E+00,
2458161.500000000, A.D. 2018-Feb-12 00:00:00.0000, -6.141661273011022E+08, -5.209110956849681E+08,  6.092230411768198E+06,  1.092537269966513E+01, -8.369495668757883E+00,  8.696007929625438E-02,  2.686352009001382E+03,  8.053480718317624E+08, -2.917621563241804E+00,
2458162.500000000, A.D. 2018-Feb-13 00:00:00.0000, -6.132211931433506E+08, -5.216346844815684E+08,  6.100317269645482E+06,  1.094805949570470E+01, -8.380270690054793E+00,  1.002395014335256E-01,  2.685512473144556E+03,  8.050963853136655E+08, -2.908385628398518E+00,
2458163.500000000, A.D. 2018-Feb-14 00:00:00.0000, -6.122743102162291E+08, -5.223592108782949E+08,  6.109552430652946E+06,  1.097048254020186E+01, -8.391199114396922E+00,  1.135409013449693E-01,  2.684675659345877E+03,  8.048455148480715E+08, -2.898731191504327E+00,
2458164.500000000, A.D. 2018-Feb-15 00:00:00.0000, -6.113255014541303E+08, -5.230846880598778E+08,  6.119937722373664E+06,  1.099263844150885E+01, -8.402279317331493E+00,  1.268626097149239E-01,  2.683841688445261E+03,  8.045954966618750E+08, -2.888656685543212E+00,
2458165.500000000, A.D. 2018-Feb-16 00:00:00.0000, -6.103747900850512E+08, -5.238111290656746E+08,  6.131474824021161E+06,  1.101452380529643E+01, -8.413509565690546E+00,  1.402028743742250E-01,  2.683010681719817E+03,  8.043463671130397E+08, -2.878160646700060E+00,
2458166.500000000, A.D. 2018-Feb-17 00:00:00.0000, -6.094221996290545E+08, -5.245385467828321E+08,  6.144165262894213E+06,  1.103613526330791E+01, -8.424888076745837E+00,  1.535599383714206E-01,  2.682182760855117E+03,  8.040981626819814E+08, -2.867241698023047E+00,
2458167.500000000, A.D. 2018-Feb-18 00:00:00.0000, -6.084677538971156E+08, -5.252669539427887E+08,  6.158010414328963E+06,  1.105746944407401E+01, -8.436413024620210E+00,  1.669320337817326E-01,  2.681358047924566E+03,  8.038509199653872E+08, -2.855898523662214E+00,
2458168.500000000, A.D. 2018-Feb-19 00:00:00.0000, -6.075114769922725E+08, -5.259963631163373E+08,  6.173011499017894E+06,  1.107852295999434E+01, -8.448082513515647E+00,  1.803173461805598E-01,  2.680536665371227E+03,  8.036046756707636E+08, -2.844129877596625E+00,
2458169.500000000, A.D. 2018-Feb-20 00:00:00.0000, -6.065533933102438E+08, -5.267267867073408E+08,  6.189169579084188E+06,  1.109929242721702E+01, -8.459894577643615E+00,  1.937140240185462E-01,  2.679718735985074E+03,  8.033594666096183E+08, -2.831934599542269E+00,
2458170.500000000, A.D. 2018-Feb-21 00:00:00.0000, -6.055935275386404E+08, -5.274582369473479E+08,  6.206485555890262E+06,  1.111977447063228E+01, -8.471847194957713E+00,  2.071201979529569E-01,  2.678904382878471E+03,  8.031153296901100E+08, -2.819311610352826E+00,
2458171.500000000, A.D. 2018-Feb-22 00:00:00.0000, -6.046319046570464E+08, -5.281907258904842E+08,  6.224960167931885E+06,  1.113996570357855E+01, -8.483938276218453E+00,  2.205339611809110E-01,  2.678093729464234E+03,  8.028723019104698E+08, -2.806259904791441E+00,
2458172.500000000, A.D. 2018-Feb-23 00:00:00.0000, -6.036685499381776E+08, -5.289242654065079E+08,  6.244593986231476E+06,  1.115986273257602E+01, -8.496165640221685E+00,  2.339533427359859E-01,  2.677286899432067E+03,  8.026304203519381E+08, -2.792778572530321E+00,
2458173.500000000, A.D. 2018-Feb-24 00:00:00.0000, -6.027034889466189E+08, -5.296588671728340E+08,  6.265387409461111E+06,  1.117946220222421E+01, -8.508527020809248E+00,  2.473763325838898E-01,  2.676484016716371E+03,  8.023897221691138E+08, -2.778866828065620E+00,
2458174.500000000, A.D. 2018-Feb-25 00:00:00.0000, -6.017367475348244E+08, -5.303945426687233E+08,  6.287340662606597E+06,  1.119876079522252E+01, -8.521020101865233E+00,  2.608009222137495E-01,  2.675685205461808E+03,  8.021502445796304E+08, -2.764523987968037E+00,
2458175.500000000, A.D. 2018-Feb-26 00:00:00.0000, -6.007683518431624E+08, -5.311313031711693E+08,  6.310453796093822E+06,  1.121775515309951E+01, -8.533642509921181E+00,  2.742250667188451E-01,  2.674890590002579E+03,  8.019120248579435E+08, -2.749749417205423E+00,
